#aV2021  4 14  0  0  0.00000000     288 DD+AD WGS84 FIT  NGA
## 2153 259200.00000000   300.00000000 59318 0.0000000000000
+   31     1  2  3  4  5  6  7  8  9 10 12 13 14 15 16 17 18
+         19 20 21 22 23 24 25 26 27 28 29 30 31 32  0  0  0
+          0  0  0  0  0  0  0  0  0  0  0  0  0  0  0  0  0
+          0  0  0  0  0  0  0  0  0  0  0  0  0  0  0  0  0
+          0  0  0  0  0  0  0  0  0  0  0  0  0  0  0  0  0
++         2  2  2  2  2  2  2  2  2  2  2  2  2  2  2  2  2
++         2  2  2  2  2  2  2  2  2  2  2  2  2  2  0  0  0
++         0  0  0  0  0  0  0  0  0  0  0  0  0  0  0  0  0
++         0  0  0  0  0  0  0  0  0  0  0  0  0  0  0  0  0
++         0  0  0  0  0  0  0  0  0  0  0  0  0  0  0  0  0
%c cc cc ccc ccc cccc cccc cccc cccc ccccc ccccc ccccc ccccc
%c cc cc ccc ccc cccc cccc cccc cccc ccccc ccccc ccccc ccccc
%f  0.0000000  0.000000000  0.00000000000  0.000000000000000
%f  0.0000000  0.000000000  0.00000000000  0.000000000000000
%i    0    0    0    0      0      0      0      0         0
%i    0    0    0    0      0      0      0      0         0
/*      NGA, ST. LOUIS,MO.                                  
/*   EPHEMERIS COMPUTED FROM 2 DAYS OF DATA                 
/*   EPOCHA v6 SMOOTHER                                     
/*   G2139 IERS2010 SATIGS SATAPC                           
*  2021  4 14  4  0  0.00000000
P  1  -9858.240431  19738.927312 -14776.023467    716.771180                    
V  1 -15729.324275   9731.768211  24239.089368     -0.098920                    
P  2  21781.380296 -13525.089560  -6359.682142   -595.458605                    
V  2  -4841.426515   7972.651474 -30379.349633     -0.034395                    
P  3    -45.255004  15887.242036 -21381.153287   -136.211085                    
V  3 -25079.320561  -9795.328969  -7143.771692     -0.106245                    
P  4  -1958.980653  25673.821034  -6392.773778   -191.687913                    
V  4  -3539.215461  -7830.352828 -30381.066775     -0.019385                    
P  5  17338.554837  -7567.099369  18567.944638    -39.026214                    
V  5  21837.960504   9674.596266 -16134.568380     -0.010770                    
P  6  20602.171795  -1856.127525 -16634.472785      7.103699                    
V  6 -15962.832243  13960.720495 -21191.176398      0.028324                    
P  7   4393.811601  15652.130226  21266.498742    121.377281                    
V  7 -21537.267550  15176.540808  -7323.308835      0.115794                    
P  8  -6782.683579  21164.730308  14302.056347    -17.436332                    
V  8  -4863.310548 -17754.802263  24255.088948     -0.013740                    
P  9   6644.967474  25388.735226   3952.442106   -338.739822                    
V  9  -2244.017972   5493.816357 -31071.322058     -0.027393                    
P 10 -23746.811456 -11892.608711   2914.413320   -101.545726                    
V 10   4146.794138   -815.769494  31464.837424     -0.077560                    
P 12   4187.443002 -14642.223909 -22026.063399    -27.506790                    
V 12  24505.818138  12042.981584  -3241.647469     -0.050927                    
P 13  12955.739086 -13237.826010  18853.430310    119.674975                    
V 13   1421.730879  24241.904660  16058.339235      0.046014                    
P 14  22766.491858  13270.556973   3413.563899     96.192219                    
V 14  -5156.596061    770.220367  31268.548034     -0.026956                    
P 15   4713.353054 -22087.571729  13331.170766   -156.326635                    
V 15   7549.118301  16395.069770  24209.452578      0.026067                    
P 16 -20304.171900   2389.248413  16957.114156   -309.361856                    
V 16 -18705.567909 -11268.033351 -20065.453848     -0.059065                    
P 17  12780.155313  14836.817375 -17516.107008    426.035323                    
V 17    255.046891  23088.139948  19276.846988      0.061729                    
P 18  -7475.639583 -13150.851046  21821.264951    351.625760                    
V 18  22442.448582 -16247.924054  -2161.880299     -0.000017                    
P 19  14662.017409   5813.538041 -21671.321974    -13.230650                    
V 19    293.501347  26770.440175   7377.201893      0.050107                    
P 20  -5943.285006 -16579.190677  19906.865746    523.198467                    
V 20  24895.894389   5069.008967  11352.050045     -0.003880                    
P 21 -15725.205587  19921.164124  -6228.486550    110.823894                    
V 21  -8902.412345   3474.059415  30612.398287      0.028339                    
P 22 -10099.545783  12916.047956 -20668.596431   -638.388308                    
V 22 -25411.500887  -8668.347702   7119.033552      0.087541                    
P 23 -16882.262865 -16010.759401  12830.525162    113.599540                    
V 23  16009.896693   3779.473992  25697.907494     -0.020514                    
P 24  13022.319289 -20947.578658  -9560.348667      3.364520                    
V 24  11270.792114  -5325.247574  28122.770237      0.370753                    
P 25 -10384.065289 -17478.116419 -17498.081679    118.159711                    
V 25  20533.054181   6858.899171 -19060.223363      0.072839                    
P 26 -25083.944746  -2328.305652   8775.643108     71.862763                    
V 26  -9504.400099  -6553.592220 -28452.990783      0.051738                    
P 27 -12753.823065  10206.719768  20688.083911   -112.328119                    
V 27  -4469.236850 -26349.807154  10520.628851     -0.068437                    
P 28  23023.058420  13026.165759   1151.280160    587.088307                    
V 28  -1916.122111   1904.672013  32106.405810     -0.057762                    
P 29  -4648.072454 -25694.063476   4691.268180   -329.622850                    
V 29   1703.550837  -6120.538602 -31561.018975     -0.067029                    
P 30  16396.876663   6266.311647  20048.257938   -412.532482                    
V 30 -19825.241299  15856.620964  11056.734284     -0.052375                    
P 31 -22328.184450   3790.083167 -14325.722626   -111.462792                    
V 31  13324.625526 -12066.671776 -23642.980604     -0.022113                    
P 32 -14756.753305 -12233.924256 -18349.035537     22.088812                    
V 32  -1770.533194 -23450.927934  16791.455676      0.000152                    
EOF
